{
  "type": "FeatureCollection",
  "features": [
    {
      "type": "Feature",
      "properties": {
        "norad_id": 30690,
        "name": "FENGYUN 1C DEB",
        "group": "fengyun-1c-debris",
        "lat": 31.638456183059432,
        "lon": 94.80347975414523,
        "alt_km": 834.7015209776855,
        "timestamp": "2025-12-04T17:48:40.443850+00:00",
        "meta_object_name": "FENGYUN 1C DEB",
        "meta_object_id": "1999-025AQY",
        "meta_epoch": "2025-12-04T07:26:21.503904",
        "meta_mean_motion": 14.02276535,
        "meta_eccentricity": 0.01045111,
        "meta_inclination": 99.1597,
        "meta_ra_of_asc_node": 268.6641,
        "meta_arg_of_pericenter": 99.0613,
        "meta_mean_anomaly": 27.3804,
        "meta_ephemeris_type": 0,
        "meta_classification_type": "U",
        "meta_norad_cat_id": 30690,
        "meta_element_set_no": 999,
        "meta_rev_at_epoch": 95589,
        "meta_bstar": 0.0023081006,
        "meta_mean_motion_dot": 3.668e-05,
        "meta_mean_motion_ddot": 0,
        "tle_line1": "1 30690U 99025AQY 25338.30997111  .00003668  00000+0  23081-2 0  9993",
        "tle_line2": "2 30690  99.1597 268.6641 0104511  99.0613  27.3804 14.02276535955898"
      },
      "geometry": {
        "type": "Point",
        "coordinates": [
          94.80347975414523,
          31.638456183059432
        ]
      }
    },
    {
      "type": "Feature",
      "properties": {
        "norad_id": 30691,
        "name": "FENGYUN 1C DEB",
        "group": "fengyun-1c-debris",
        "lat": 26.968118428695995,
        "lon": 175.12620730357207,
        "alt_km": 950.2936097829452,
        "timestamp": "2025-12-04T17:48:40.443861+00:00",
        "meta_object_name": "FENGYUN 1C DEB",
        "meta_object_id": "1999-025AQZ",
        "meta_epoch": "2025-12-04T00:05:39.666912",
        "meta_mean_motion": 13.89394846,
        "meta_eccentricity": 0.01391368,
        "meta_inclination": 98.7425,
        "meta_ra_of_asc_node": 349.9423,
        "meta_arg_of_pericenter": 257.1269,
        "meta_mean_anomaly": 166.6765,
        "meta_ephemeris_type": 0,
        "meta_classification_type": "U",
        "meta_norad_cat_id": 30691,
        "meta_element_set_no": 999,
        "meta_rev_at_epoch": 94995,
        "meta_bstar": 0.0017654793,
        "meta_mean_motion_dot": 2.287e-05,
        "meta_mean_motion_ddot": 0,
        "tle_line1": "1 30691U 99025AQZ 25338.00393133  .00002287  00000+0  17655-2 0  9991",
        "tle_line2": "2 30691  98.7425 349.9423 0139136 257.1269 166.6765 13.89394846949953"
      },
      "geometry": {
        "type": "Point",
        "coordinates": [
          175.12620730357207,
          26.968118428695995
        ]
      }
    },
    {
      "type": "Feature",
      "properties": {
        "norad_id": 30693,
        "name": "FENGYUN 1C DEB",
        "group": "fengyun-1c-debris",
        "lat": -55.96290232048204,
        "lon": -22.81573634296231,
        "alt_km": 863.2361268951463,
        "timestamp": "2025-12-04T17:48:40.443871+00:00",
        "meta_object_name": "FENGYUN 1C DEB",
        "meta_object_id": "1999-025ARB",
        "meta_epoch": "2025-12-04T04:29:17.934432",
        "meta_mean_motion": 14.13271306,
        "meta_eccentricity": 0.00288861,
        "meta_inclination": 98.6856,
        "meta_ra_of_asc_node": 323.5656,
        "meta_arg_of_pericenter": 191.9396,
        "meta_mean_anomaly": 168.1095,
        "meta_ephemeris_type": 0,
        "meta_classification_type": "U",
        "meta_norad_cat_id": 30693,
        "meta_element_set_no": 999,
        "meta_rev_at_epoch": 96814,
        "meta_bstar": 0.00055633337,
        "meta_mean_motion_dot": 1.004e-05,
        "meta_mean_motion_ddot": 0,
        "tle_line1": "1 30693U 99025ARB 25338.18701313  .00001004  00000+0  55633-3 0  9990",
        "tle_line2": "2 30693  98.6856 323.5656 0028886 191.9396 168.1095 14.13271306968141"
      },
      "geometry": {
        "type": "Point",
        "coordinates": [
          -22.81573634296231,
          -55.96290232048204
        ]
      }
    },
    {
      "type": "Feature",
      "properties": {
        "norad_id": 30694,
        "name": "FENGYUN 1C DEB",
        "group": "fengyun-1c-debris",
        "lat": -73.32337556188936,
        "lon": 91.71817179074688,
        "alt_km": 576.946232995826,
        "timestamp": "2025-12-04T17:48:40.443880+00:00",
        "meta_object_name": "FENGYUN 1C DEB",
        "meta_object_id": "1999-025ARC",
        "meta_epoch": "2025-12-03T08:19:56.034048",
        "meta_mean_motion": 14.85960567,
        "meta_eccentricity": 0.013247,
        "meta_inclination": 99.0454,
        "meta_ra_of_asc_node": 302.2589,
        "meta_arg_of_pericenter": 324.917,
        "meta_mean_anomaly": 34.3369,
        "meta_ephemeris_type": 0,
        "meta_classification_type": "U",
        "meta_norad_cat_id": 30694,
        "meta_element_set_no": 999,
        "meta_rev_at_epoch": 99962,
        "meta_bstar": 0.0022947,
        "meta_mean_motion_dot": 0.00023484,
        "meta_mean_motion_ddot": 0,
        "tle_line1": "1 30694U 99025ARC 25337.34717632  .00023484  00000+0  22947-2 0  9996",
        "tle_line2": "2 30694  99.0454 302.2589 0132470 324.9170  34.3369 14.85960567999621"
      },
      "geometry": {
        "type": "Point",
        "coordinates": [
          91.71817179074688,
          -73.32337556188936
        ]
      }
    },
    {
      "type": "Feature",
      "properties": {
        "norad_id": 30696,
        "name": "FENGYUN 1C DEB",
        "group": "fengyun-1c-debris",
        "lat": -46.54358727643605,
        "lon": 36.82353201417297,
        "alt_km": 811.0999325133071,
        "timestamp": "2025-12-04T17:48:40.443890+00:00",
        "meta_object_name": "FENGYUN 1C DEB",
        "meta_object_id": "1999-025ARE",
        "meta_epoch": "2025-12-03T20:41:17.030688",
        "meta_mean_motion": 14.44675307,
        "meta_eccentricity": 0.00899503,
        "meta_inclination": 98.3902,
        "meta_ra_of_asc_node": 26.9936,
        "meta_arg_of_pericenter": 152.3411,
        "meta_mean_anomaly": 265.4705,
        "meta_ephemeris_type": 0,
        "meta_classification_type": "U",
        "meta_norad_cat_id": 30696,
        "meta_element_set_no": 999,
        "meta_rev_at_epoch": 98176,
        "meta_bstar": 0.0017936264,
        "meta_mean_motion_dot": 6.491e-05,
        "meta_mean_motion_ddot": 0,
        "tle_line1": "1 30696U 99025ARE 25337.86200267  .00006491  00000+0  17936-2 0  9997",
        "tle_line2": "2 30696  98.3902  26.9936 0089950 152.3411 265.4705 14.44675307981761"
      },
      "geometry": {
        "type": "Point",
        "coordinates": [
          36.82353201417297,
          -46.54358727643605
        ]
      }
    },
    {
      "type": "Feature",
      "properties": {
        "norad_id": 30697,
        "name": "FENGYUN 1C DEB",
        "group": "fengyun-1c-debris",
        "lat": -77.28607639478433,
        "lon": 171.57557353428936,
        "alt_km": 816.7921513500423,
        "timestamp": "2025-12-04T17:48:40.443900+00:00",
        "meta_object_name": "FENGYUN 1C DEB",
        "meta_object_id": "1999-025ARF",
        "meta_epoch": "2025-12-02T10:16:56.460864",
        "meta_mean_motion": 14.13419891,
        "meta_eccentricity": 0.00877171,
        "meta_inclination": 98.9085,
        "meta_ra_of_asc_node": 33.3149,
        "meta_arg_of_pericenter": 214.0225,
        "meta_mean_anomaly": 159.6866,
        "meta_ephemeris_type": 0,
        "meta_classification_type": "U",
        "meta_norad_cat_id": 30697,
        "meta_element_set_no": 999,
        "meta_rev_at_epoch": 96115,
        "meta_bstar": 0.0019833151,
        "meta_mean_motion_dot": 3.823e-05,
        "meta_mean_motion_ddot": 0,
        "tle_line1": "1 30697U 99025ARF 25336.42843126  .00003823  00000+0  19833-2 0  9990",
        "tle_line2": "2 30697  98.9085  33.3149 0087717 214.0225 159.6866 14.13419891961159"
      },
      "geometry": {
        "type": "Point",
        "coordinates": [
          171.57557353428936,
          -77.28607639478433
        ]
      }
    },
    {
      "type": "Feature",
      "properties": {
        "norad_id": 30699,
        "name": "FENGYUN 1C DEB",
        "group": "fengyun-1c-debris",
        "lat": 29.595147006606883,
        "lon": -77.22331559347823,
        "alt_km": 736.2536874833695,
        "timestamp": "2025-12-04T17:48:40.443911+00:00",
        "meta_object_name": "FENGYUN 1C DEB",
        "meta_object_id": "1999-025ARH",
        "meta_epoch": "2025-12-04T07:09:40.407840",
        "meta_mean_motion": 14.4671277,
        "meta_eccentricity": 0.00037306,
        "meta_inclination": 99.3122,
        "meta_ra_of_asc_node": 96.942,
        "meta_arg_of_pericenter": 273.7696,
        "meta_mean_anomaly": 86.3066,
        "meta_ephemeris_type": 0,
        "meta_classification_type": "U",
        "meta_norad_cat_id": 30699,
        "meta_element_set_no": 999,
        "meta_rev_at_epoch": 97491,
        "meta_bstar": 0.0061354328,
        "meta_mean_motion_dot": 0.00022206,
        "meta_mean_motion_ddot": 0,
        "tle_line1": "1 30699U 99025ARH 25338.29838435  .00022206  00000+0  61354-2 0  9997",
        "tle_line2": "2 30699  99.3122  96.9420 0003730 273.7696  86.3066 14.46712770974916"
      },
      "geometry": {
        "type": "Point",
        "coordinates": [
          -77.22331559347823,
          29.595147006606883
        ]
      }
    }
  ]
}